start=new Date('2022-07-21T00:00:00.000Z').valueOf();
sats=[{"RCS_SIZE":"LARGE","OBJECT_TYPE":"PAYLOAD","PERIAPSIS":"546.314","BSTAR":"0.00026349000000","MEAN_MOTION_DOT":"0.00003645","ARG_OF_PERICENTER":"78.8791","SEMIMAJOR_AXIS":"6925.358","LAUNCH_DATE":"2021-03-11","INCLINATION":"53.0529","COUNTRY_CODE":"US","REV_AT_EPOCH":"7689","SITE":"AFETR","CLASSIFICATION_TYPE":"U","TLE_LINE1":"1 47790U 21018D   22201.86973067  .00003645  00000-0  26349-3 0  9997","EPOCH":"2022-07-20T20:52:24.729888","OBJECT_ID":"2021-018D","PERIOD":"95.592","ECCENTRICITY":"0.00013120","EPHEMERIS_TYPE":"0","NORAD_CAT_ID":"47790","MEAN_ANOMALY":"281.2346","ELEMENT_SET_NO":"999","MEAN_ELEMENT_THEORY":"SGP4","FILE":"3518363","OBJECT_NAME":"STARLINK-2319","RA_OF_ASC_NODE":"62.4416","APOAPSIS":"548.131","GP_ID":"208533397","TLE_LINE2":"2 47790  53.0529  62.4416 0001312  78.8791 281.2346 15.06396982 76898","CENTER_NAME":"EARTH","DECAY_DATE":null,"MEAN_MOTION":"15.06396982","REF_FRAME":"TEME","TIME_SYSTEM":"UTC","MEAN_MOTION_DDOT":"0.0000000000000"},{"COUNTRY_CODE":"US","INCLINATION":"53.0545","ECCENTRICITY":"0.00016360","PERIOD":"95.592","OBJECT_ID":"2021-018E","EPOCH":"2022-07-20T10:11:30.481440","CLASSIFICATION_TYPE":"U","SITE":"AFETR","TLE_LINE1":"1 47791U 21018E   22201.42465835  .00001653  00000-0  12985-3 0  9997","REV_AT_EPOCH":"7605","ARG_OF_PERICENTER":"78.3827","OBJECT_TYPE":"PAYLOAD","PERIAPSIS":"546.088","BSTAR":"0.00012985000000","MEAN_MOTION_DOT":"0.00001653","RCS_SIZE":"LARGE","SEMIMAJOR_AXIS":"6925.356","LAUNCH_DATE":"2021-03-11","CENTER_NAME":"EARTH","TLE_LINE2":"2 47791  53.0545  94.4269 0001636  78.3827 281.7346 15.06397472 76050","GP_ID":"208479291","TIME_SYSTEM":"UTC","REF_FRAME":"TEME","MEAN_MOTION_DDOT":"0.0000000000000","MEAN_MOTION":"15.06397472","DECAY_DATE":null,"FILE":"3518012","ELEMENT_SET_NO":"999","MEAN_ANOMALY":"281.7346","MEAN_ELEMENT_THEORY":"SGP4","NORAD_CAT_ID":"47791","EPHEMERIS_TYPE":"0","APOAPSIS":"548.354","RA_OF_ASC_NODE":"94.4269","OBJECT_NAME":"STARLINK-2322"},{"ARG_OF_PERICENTER":"71.1445","OBJECT_TYPE":"PAYLOAD","PERIAPSIS":"545.948","BSTAR":"0.00009981500000","MEAN_MOTION_DOT":"0.00001205","RCS_SIZE":"LARGE","SEMIMAJOR_AXIS":"6925.344","LAUNCH_DATE":"2021-03-11","COUNTRY_CODE":"US","INCLINATION":"53.0547","PERIOD":"95.592","ECCENTRICITY":"0.00018210","EPOCH":"2022-07-20T18:27:46.315584","OBJECT_ID":"2021-018F","CLASSIFICATION_TYPE":"U","SITE":"AFETR","TLE_LINE1":"1 47792U 21018F   22201.76928606  .00001205  00000-0  99815-4 0  9996","REV_AT_EPOCH":"7673","FILE":"3518363","ELEMENT_SET_NO":"999","MEAN_ANOMALY":"288.9742","MEAN_ELEMENT_THEORY":"SGP4","NORAD_CAT_ID":"47792","EPHEMERIS_TYPE":"0","APOAPSIS":"548.470","RA_OF_ASC_NODE":"72.8914","OBJECT_NAME":"STARLINK-2334","TLE_LINE2":"2 47792  53.0547  72.8914 0001821  71.1445 288.9742 15.06401526 76733","CENTER_NAME":"EARTH","GP_ID":"208534399","REF_FRAME":"TEME","TIME_SYSTEM":"UTC","MEAN_MOTION_DDOT":"0.0000000000000","MEAN_MOTION":"15.06401526","DECAY_DATE":null},{"COUNTRY_CODE":"US","INCLINATION":"53.0543","ECCENTRICITY":"0.00018190","PERIOD":"95.592","OBJECT_ID":"2021-018G","EPOCH":"2022-07-20T18:49:00.325056","SITE":"AFETR","CLASSIFICATION_TYPE":"U","TLE_LINE1":"1 47793U 21018G   22201.78403154  .00001233  00000-0  10164-3 0  9995","REV_AT_EPOCH":"7672","ARG_OF_PERICENTER":"77.6687","OBJECT_TYPE":"PAYLOAD","BSTAR":"0.00010164000000","PERIAPSIS":"545.944","MEAN_MOTION_DOT":"0.00001233","RCS_SIZE":"LARGE","SEMIMAJOR_AXIS":"6925.338","LAUNCH_DATE":"2021-03-11","TLE_LINE2":"2 47793  53.0543  72.8291 0001819  77.6687 282.4505 15.06403318 76720","CENTER_NAME":"EARTH","GP_ID":"208533146","REF_FRAME":"TEME","TIME_SYSTEM":"UTC","MEAN_MOTION_DDOT":"0.0000000000000","MEAN_MOTION":"15.06403318","DECAY_DATE":null,"FILE":"3518363","MEAN_ANOMALY":"282.4505","ELEMENT_SET_NO":"999","MEAN_ELEMENT_THEORY":"SGP4","NORAD_CAT_ID":"47793","EPHEMERIS_TYPE":"0","APOAPSIS":"548.463","RA_OF_ASC_NODE":"72.8291","OBJECT_NAME":"STARLINK-2338"},{"ECCENTRICITY":"0.00016670","PERIOD":"95.592","OBJECT_ID":"2021-018H","EPOCH":"2022-07-20T20:29:51.006048","CLASSIFICATION_TYPE":"U","SITE":"AFETR","TLE_LINE1":"1 47794U 21018H   22201.85406257  .00001773  00000-0  13792-3 0  9990","REV_AT_EPOCH":"7674","COUNTRY_CODE":"US","INCLINATION":"53.0549","SEMIMAJOR_AXIS":"6925.352","LAUNCH_DATE":"2021-03-11","ARG_OF_PERICENTER":"64.2368","OBJECT_TYPE":"PAYLOAD","PERIAPSIS":"546.062","MEAN_MOTION_DOT":"0.00001773","BSTAR":"0.00013792000000","RCS_SIZE":"LARGE","REF_FRAME":"TEME","TIME_SYSTEM":"UTC","MEAN_MOTION_DDOT":"0.0000000000000","DECAY_DATE":null,"MEAN_MOTION":"15.06398900","TLE_LINE2":"2 47794  53.0549  72.5139 0001667  64.2368 295.8793 15.06398900 76743","CENTER_NAME":"EARTH","GP_ID":"208533898","APOAPSIS":"548.371","RA_OF_ASC_NODE":"72.5139","OBJECT_NAME":"STARLINK-2341","FILE":"3518363","ELEMENT_SET_NO":"999","MEAN_ANOMALY":"295.8793","MEAN_ELEMENT_THEORY":"SGP4","NORAD_CAT_ID":"47794","EPHEMERIS_TYPE":"0"},{"CENTER_NAME":"EARTH","TLE_LINE2":"2 47795  53.0544  72.8610 0001563  93.1047 267.0121 15.06409832 76783","GP_ID":"208534149","REF_FRAME":"TEME","TIME_SYSTEM":"UTC","MEAN_MOTION_DDOT":"0.0000000000000","DECAY_DATE":null,"MEAN_MOTION":"15.06409832","FILE":"3518363","ELEMENT_SET_NO":"999","MEAN_ANOMALY":"267.0121","MEAN_ELEMENT_THEORY":"SGP4","NORAD_CAT_ID":"47795","EPHEMERIS_TYPE":"0","APOAPSIS":"548.266","RA_OF_ASC_NODE":"72.8610","OBJECT_NAME":"STARLINK-2347","COUNTRY_CODE":"US","INCLINATION":"53.0544","ECCENTRICITY":"0.00015630","PERIOD":"95.592","OBJECT_ID":"2021-018J","EPOCH":"2022-07-20T18:38:22.895232","SITE":"AFETR","CLASSIFICATION_TYPE":"U","TLE_LINE1":"1 47795U 21018J   22201.77665388  .00003483  00000-0  25253-3 0  9999","REV_AT_EPOCH":"7678","ARG_OF_PERICENTER":"93.1047","BSTAR":"0.00025253000000","OBJECT_TYPE":"PAYLOAD","PERIAPSIS":"546.101","MEAN_MOTION_DOT":"0.00003483","RCS_SIZE":"LARGE","SEMIMAJOR_AXIS":"6925.318","LAUNCH_DATE":"2021-03-11"},{"COUNTRY_CODE":"US","INCLINATION":"53.0538","ECCENTRICITY":"0.00015900","PERIOD":"95.592","EPOCH":"2022-07-20T20:35:09.457440","OBJECT_ID":"2021-018K","TLE_LINE1":"1 47796U 21018K   22201.85774835  .00002329  00000-0  17516-3 0  9998","SITE":"AFETR","CLASSIFICATION_TYPE":"U","REV_AT_EPOCH":"7674","ARG_OF_PERICENTER":"68.6256","OBJECT_TYPE":"PAYLOAD","PERIAPSIS":"546.100","BSTAR":"0.00017516000000","MEAN_MOTION_DOT":"0.00002329","RCS_SIZE":"LARGE","LAUNCH_DATE":"2021-03-11","SEMIMAJOR_AXIS":"6925.336","TLE_LINE2":"2 47796  53.0538  72.4962 0001590  68.6256 291.4903 15.06403953 76745","CENTER_NAME":"EARTH","GP_ID":"208534900","MEAN_MOTION_DDOT":"0.0000000000000","REF_FRAME":"TEME","TIME_SYSTEM":"UTC","DECAY_DATE":null,"MEAN_MOTION":"15.06403953","FILE":"3518363","MEAN_ELEMENT_THEORY":"SGP4","ELEMENT_SET_NO":"999","MEAN_ANOMALY":"291.4903","NORAD_CAT_ID":"47796","EPHEMERIS_TYPE":"0","APOAPSIS":"548.303","RA_OF_ASC_NODE":"72.4962","OBJECT_NAME":"STARLINK-2373"},{"DECAY_DATE":null,"MEAN_MOTION":"15.06392856","MEAN_MOTION_DDOT":"0.0000000000000","TIME_SYSTEM":"UTC","REF_FRAME":"TEME","GP_ID":"208479050","CENTER_NAME":"EARTH","TLE_LINE2":"2 47797  53.0561  99.4134 0001533  78.7735 281.3426 15.06392856 75985","APOAPSIS":"548.297","OBJECT_NAME":"STARLINK-2377","RA_OF_ASC_NODE":"99.4134","MEAN_ELEMENT_THEORY":"SGP4","ELEMENT_SET_NO":"999","MEAN_ANOMALY":"281.3426","FILE":"3518020","EPHEMERIS_TYPE":"0","NORAD_CAT_ID":"47797","OBJECT_ID":"2021-018L","EPOCH":"2022-07-20T10:18:48.691872","PERIOD":"95.593","ECCENTRICITY":"0.00015330","REV_AT_EPOCH":"7598","TLE_LINE1":"1 47797U 21018L   22201.42973023  .00001128  00000-0  94620-4 0  9990","CLASSIFICATION_TYPE":"U","SITE":"AFETR","INCLINATION":"53.0561","COUNTRY_CODE":"US","LAUNCH_DATE":"2021-03-11","SEMIMAJOR_AXIS":"6925.370","OBJECT_TYPE":"PAYLOAD","PERIAPSIS":"546.174","MEAN_MOTION_DOT":"0.00001128","BSTAR":"0.00009462000000","ARG_OF_PERICENTER":"78.7735","RCS_SIZE":"LARGE"},{"EPHEMERIS_TYPE":"0","NORAD_CAT_ID":"47798","ELEMENT_SET_NO":"999","MEAN_ANOMALY":"273.4608","MEAN_ELEMENT_THEORY":"SGP4","FILE":"3518363","OBJECT_NAME":"STARLINK-2379","RA_OF_ASC_NODE":"72.4486","APOAPSIS":"548.262","GP_ID":"208533398","TLE_LINE2":"2 47798  53.0548  72.4486 0001537  86.6556 273.4608 15.06405271 76740","CENTER_NAME":"EARTH","MEAN_MOTION":"15.06405271","DECAY_DATE":null,"TIME_SYSTEM":"UTC","REF_FRAME":"TEME","MEAN_MOTION_DDOT":"0.0000000000000","RCS_SIZE":"LARGE","MEAN_MOTION_DOT":"0.00001896","OBJECT_TYPE":"PAYLOAD","PERIAPSIS":"546.133","BSTAR":"0.00014613000000","ARG_OF_PERICENTER":"86.6556","SEMIMAJOR_AXIS":"6925.332","LAUNCH_DATE":"2021-03-11","INCLINATION":"53.0548","COUNTRY_CODE":"US","REV_AT_EPOCH":"7674","SITE":"AFETR","CLASSIFICATION_TYPE":"U","TLE_LINE1":"1 47798U 21018M   22201.86880189  .00001896  00000-0  14613-3 0  9994","OBJECT_ID":"2021-018M","EPOCH":"2022-07-20T20:51:04.483296","ECCENTRICITY":"0.00015370","PERIOD":"95.592"},{"CLASSIFICATION_TYPE":"U","SITE":"AFETR","TLE_LINE1":"1 47799U 21018N   22201.86512010  .00002936  00000-0  21588-3 0  9995","REV_AT_EPOCH":"7673","ECCENTRICITY":"0.00014740","PERIOD":"95.592","EPOCH":"2022-07-20T20:45:46.376640","OBJECT_ID":"2021-018N","COUNTRY_CODE":"US","INCLINATION":"53.0540","SEMIMAJOR_AXIS":"6925.321","LAUNCH_DATE":"2021-03-11","RCS_SIZE":"LARGE","ARG_OF_PERICENTER":"91.9035","PERIAPSIS":"546.165","OBJECT_TYPE":"PAYLOAD","MEAN_MOTION_DOT":"0.00002936","BSTAR":"0.00021588000000","REF_FRAME":"TEME","TIME_SYSTEM":"UTC","MEAN_MOTION_DDOT":"0.0000000000000","DECAY_DATE":null,"MEAN_MOTION":"15.06409038","TLE_LINE2":"2 47799  53.0540  72.4507 0001474  91.9035 268.2123 15.06409038 76736","CENTER_NAME":"EARTH","GP_ID":"208534650","RA_OF_ASC_NODE":"72.4507","OBJECT_NAME":"STARLINK-2380","APOAPSIS":"548.207","NORAD_CAT_ID":"47799","EPHEMERIS_TYPE":"0","FILE":"3518363","MEAN_ANOMALY":"268.2123","ELEMENT_SET_NO":"999","MEAN_ELEMENT_THEORY":"SGP4"}];
